[{"OBJECT_NAME":"STARLINK-3578","OBJECT_ID":"2022-022S","EPOCH":"2026-03-09T05:44:13.825824","MEAN_MOTION":15.08839548,"ECCENTRICITY":0.00015104,"INCLINATION":53.2196,"RA_OF_ASC_NODE":11.1471,"ARG_OF_PERICENTER":81.7343,"MEAN_ANOMALY":278.382,"EPHEMERIS_TYPE":0,"CLASSIFICATION_TYPE":"U","NORAD_CAT_ID":51868,"ELEMENT_SET_NO":999,"REV_AT_EPOCH":22304,"BSTAR":2.0512154e-5,"MEAN_MOTION_DOT":3.8e-7,"MEAN_MOTION_DDOT":0},{"OBJECT_NAME":"COSMOS 249","OBJECT_ID":"1968-091A","EPOCH":"2026-03-09T15:17:49.291584","MEAN_MOTION":12.97101302,"ECCENTRICITY":0.1001971,"INCLINATION":62.3465,"RA_OF_ASC_NODE":159.271,"ARG_OF_PERICENTER":1.1028,"MEAN_ANOMALY":359.1866,"EPHEMERIS_TYPE":0,"CLASSIFICATION_TYPE":"U","NORAD_CAT_ID":3504,"ELEMENT_SET_NO":999,"REV_AT_EPOCH":70757,"BSTAR":6.6439e-5,"MEAN_MOTION_DOT":1.09e-6,"MEAN_MOTION_DDOT":0}]
